LEMUR-1                 
1 40044U 14033AL  26176.98459277  .00001819  00000+0  21365-3 0  9994
2 40044  97.7884 326.5944 0049285  50.5058 310.0500 14.85276636646778
LEMUR-2-GREENBERG       
1 42837U 17042N   26176.97325760  .00019272  00000+0  63302-3 0  9996
2 42837  97.3819 357.5590 0007712 340.8120  19.2830 15.31583105489738
LEMUR-2-ANDIS           
1 42838U 17042P   26176.98224395  .00024786  00000+0  72609-3 0  9996
2 42838  97.3679 357.7826 0007453 338.1129  21.9795 15.35179907489801
LEMUR-2-MONSON          
1 42839U 17042Q   26176.47733067  .00018549  00000+0  67583-3 0  9997
2 42839  97.4081 357.0248 0005532 333.9572  26.1388 15.28227889489431
LEMUR-2-FURIAUS         
1 42840U 17042R   26176.97318439  .00020965  00000+0  71119-3 0  9991
2 42840  97.3769 355.4943 0007561  40.8490 319.3317 15.30524650489557
LEMUR-2-PETERG          
1 42841U 17042S   26176.45010122  .00029442  00000+0  88921-3 0  9991
2 42841  97.3992   1.4954 0002735 318.2823  41.8211 15.34204539489708
LEMUR-2-DEMBITZ         
1 42842U 17042T   26176.99286641  .00017838  00000+0  60557-3 0  9993
2 42842  97.3823 358.5446 0005975 356.9882   3.1321 15.30544210489697
LEMUR-2-ZACHARY         
1 42845U 17042W   26176.51494139  .00058848  00000+0  10110-2 0  9992
2 42845  97.3594   8.3323 0002375 353.4358   6.6862 15.50949573490491
LEMUR-2-AMANDA-SVANTE   
1 48269U 21034B   26177.16061617  .00037764  00000+0  11169-2 0  9996
2 48269  97.5761 255.6850 0003196 183.8920 176.2298 15.34813940282439
LEMUR-2-SPECIAL-K       
1 48273U 21034F   26177.16109819  .00197575  00000+0  18112-2 0  9990
2 48273  97.5653 264.6843 0004940 223.4545 136.6326 15.67124343283091
LEMUR-2-EMBRIONOVIS     
1 56970U 23084AQ  26176.92197765  .00015616  00000+0  42266-3 0  9993
2 56970  97.6292 321.4579 0007466 283.8691  76.1722 15.37756561169024
LEMUR-2-DEVERILL-M-T    
1 57391U 23100F   26177.00674130  .00029391  00000+0  73306-3 0  9990
2 57391  99.4473 218.3137 0005551  19.3455 340.7994 15.40166798162609
LEMUR-2-BASS            
1 58259U 23174D   26177.15841409  .00020374  00000+0  45731-3 0  9999
2 58259  97.3852 261.9970 0008070 134.7838 225.4067 15.43380400146744
LEMUR-2-JK0903EM1407    
1 58336U 23174CJ  26177.17098110  .00032559  00000+0  53876-3 0  9997
2 58336  97.3931 267.8954 0005159  93.7667 266.4175 15.52124477147122
LEMUR-2-MJR092620       
1 58340U 23174CN  26177.16129300  .00021946  00000+0  46330-3 0  9992
2 58340  97.3981 267.3566 0006878  91.5422 268.6615 15.45191407147032
LEMUR-2-NIMBUS2000      
1 58899U 24022A   26177.10978366  .00023839  00000+0  59080-3 0  9991
2 58899  97.4106  27.2244 0010284  89.1609 271.0815 15.40341309133648
LEMUR-2-VALHALLA        
1 58900U 24022B   26177.10808332  .00018284  00000+0  46003-3 0  9998
2 58900  97.4103  27.2083 0010776  85.0596 275.1880 15.39929857133640
LEMUR-2-CAEL            
1 58903U 24022E   26177.11032139  .00019264  00000+0  46421-3 0  9999
2 58903  97.4086  28.1623 0008962  71.2657 288.9561 15.41250491133712
LEMUR-2-JOHNNYTRUONG    
1 59146U 24043BA  26176.99773130  .00043301  00000+0  51323-3 0  9996
2 59146  97.5374 329.2505 0004866 149.9772 210.1764 15.61102759129416
LEMUR-2-TOMATOKECHUP    
1 60471U 24149D   26177.16202088  .00012580  00000+0  35859-3 0  9996
2 60471  97.3804 259.2320 0002220 158.1879 201.9460 15.36209181103540
LEMUR-2-STELLA          
1 60533U 24149BT  26177.01663578  .00012681  00000+0  74201-3 0  9990
2 60533  97.6742 259.5106 0001511  97.1382 263.0020 15.11984379101834
LEMUR-2-MARHISYAM       
1 60536U 24149BW  26177.19879850  .00011386  00000+0  67705-3 0  9996
2 60536  97.6882 260.1518 0003275 102.0033 258.1564 15.11425100101846
LEMUR-2-AHMED-ASRAR     
1 60576U 24149DN  26177.15808854  .00013587  00000+0  77465-3 0  9991
2 60576  97.7009 262.2384 0001063  24.4176 335.7104 15.12904051101923
LEMUR-2-LLOYD           
1 60577U 24149DP  26177.19127139  .00011477  00000+0  72131-3 0  9997
2 60577  97.6746 258.3252 0005087 117.9672 242.2072 15.09400718101754
LEMUR-2-SQUIRRELCOMM    
1 60578U 24149DQ  26177.15169648  .00006919  00000+0  46288-3 0  9994
2 60578  97.6719 258.0347 0005929  37.5029 322.6611 15.07249295101756
LEMUR-2-SIERRINI        
1 60579U 24149DR  26177.15795740  .00012806  00000+0  76691-3 0  9996
2 60579  97.6849 259.7901 0006444 139.1845 220.9868 15.11126580101810
LEMUR-2-WILSON          
1 62694U 25009CP  26177.19651765  .00001834  00000+0  17205-3 0  9999
2 62694  97.7026 255.5031 0003636  32.6078 327.5367 14.95201873 78700
LEMUR-2-STAR-FOX        
1 62696U 25009CR  26176.68352897  .00007196  00000+0  54462-3 0  9991
2 62696  97.6953 258.2312 0004348  94.2616 265.9106 15.02608477 78835
LEMUR-2-ARIANNA         
1 62699U 25009CU  26177.14812666  .00008578  00000+0  64828-3 0  9993
2 62699  97.6896 258.4598 0004752  97.6679 262.5086 15.02603268 78908
LEMUR-2-ALISIA          
1 62706U 25009DB  26177.19094523  .00009377  00000+0  70304-3 0  9995
2 62706  97.6934 259.2980 0002747 182.3566 177.7646 15.02886005101518
