OBJECT_NAME,OBJECT_ID,EPOCH,MEAN_MOTION,ECCENTRICITY,INCLINATION,RA_OF_ASC_NODE,ARG_OF_PERICENTER,MEAN_ANOMALY,EPHEMERIS_TYPE,CLASSIFICATION_TYPE,NORAD_CAT_ID,ELEMENT_SET_NO,REV_AT_EPOCH,BSTAR,MEAN_MOTION_DOT,MEAN_MOTION_DDOT
LEMUR-1,2014-033AL,2026-06-25T23:37:48.815328,14.85276636,.0049285,97.7884,326.5944,50.5058,310.0500,0,U,40044,999,64677,.21365E-3,.1819E-4,0
LEMUR-2-GREENBERG,2017-042N,2026-06-25T23:21:29.456640,15.31583105,.0007712,97.3819,357.5590,340.8120,19.2830,0,U,42837,999,48973,.63302E-3,.19272E-3,0
LEMUR-2-ANDIS,2017-042P,2026-06-25T23:34:25.877280,15.35179907,.0007453,97.3679,357.7826,338.1129,21.9795,0,U,42838,999,48980,.72609E-3,.24786E-3,0
LEMUR-2-MONSON,2017-042Q,2026-06-25T11:27:21.369888,15.28227889,.0005532,97.4081,357.0248,333.9572,26.1388,0,U,42839,999,48943,.67583E-3,.18549E-3,0
LEMUR-2-FURIAUS,2017-042R,2026-06-25T23:21:23.131296,15.30524650,.0007561,97.3769,355.4943,40.8490,319.3317,0,U,42840,999,48955,.71119E-3,.20965E-3,0
LEMUR-2-PETERG,2017-042S,2026-06-25T10:48:08.745408,15.34204539,.0002735,97.3992,1.4954,318.2823,41.8211,0,U,42841,999,48970,.88921E-3,.29442E-3,0
LEMUR-2-DEMBITZ,2017-042T,2026-06-25T23:49:43.657824,15.30544210,.0005975,97.3823,358.5446,356.9882,3.1321,0,U,42842,999,48969,.60557E-3,.17838E-3,0
LEMUR-2-ZACHARY,2017-042W,2026-06-25T12:21:30.936096,15.50949573,.0002375,97.3594,8.3323,353.4358,6.6862,0,U,42845,999,49049,.1011E-2,.58848E-3,0
LEMUR-2-AMANDA-SVANTE,2021-034B,2026-06-26T03:51:17.237088,15.34813940,.0003196,97.5761,255.6850,183.8920,176.2298,0,U,48269,999,28243,.11169E-2,.37764E-3,0
LEMUR-2-SPECIAL-K,2021-034F,2026-06-26T03:51:58.883616,15.67124343,.000494,97.5653,264.6843,223.4545,136.6326,0,U,48273,999,28309,.18112E-2,.197575E-2,0
LEMUR-2-EMBRIONOVIS,2023-084AQ,2026-06-25T22:07:38.868960,15.37756561,.0007466,97.6292,321.4579,283.8691,76.1722,0,U,56970,999,16902,.42266E-3,.15616E-3,0
LEMUR-2-DEVERILL-M-T,2023-100F,2026-06-26T00:09:42.448320,15.40166798,.0005551,99.4473,218.3137,19.3455,340.7994,0,U,57391,999,16260,.73306E-3,.29391E-3,0
LEMUR-2-BASS,2023-174D,2026-06-26T03:48:06.977376,15.43380400,.000807,97.3852,261.9970,134.7838,225.4067,0,U,58259,999,14674,.45731E-3,.20374E-3,0
LEMUR-2-JK0903EM1407,2023-174CJ,2026-06-26T04:06:12.767040,15.52124477,.0005159,97.3931,267.8954,93.7667,266.4175,0,U,58336,999,14712,.53876E-3,.32559E-3,0
LEMUR-2-MJR092620,2023-174CN,2026-06-26T03:52:15.715200,15.45191407,.0006878,97.3981,267.3566,91.5422,268.6615,0,U,58340,999,14703,.4633E-3,.21946E-3,0
LEMUR-2-NIMBUS2000,2024-022A,2026-06-26T02:38:05.308224,15.40341309,.0010284,97.4106,27.2244,89.1609,271.0815,0,U,58899,999,13364,.5908E-3,.23839E-3,0
LEMUR-2-VALHALLA,2024-022B,2026-06-26T02:35:38.398848,15.39929857,.0010776,97.4103,27.2083,85.0596,275.1880,0,U,58900,999,13364,.46003E-3,.18284E-3,0
LEMUR-2-CAEL,2024-022E,2026-06-26T02:38:51.768096,15.41250491,.0008962,97.4086,28.1623,71.2657,288.9561,0,U,58903,999,13371,.46421E-3,.19264E-3,0
LEMUR-2-JOHNNYTRUONG,2024-043BA,2026-06-25T23:56:43.984320,15.61102759,.0004866,97.5374,329.2505,149.9772,210.1764,0,U,59146,999,12941,.51323E-3,.43301E-3,0
LEMUR-2-TOMATOKECHUP,2024-149D,2026-06-26T03:53:18.604032,15.36209181,.000222,97.3804,259.2320,158.1879,201.9460,0,U,60471,999,10354,.35859E-3,.1258E-3,0
LEMUR-2-STELLA,2024-149BT,2026-06-26T00:23:57.331392,15.11984379,.0001511,97.6742,259.5106,97.1382,263.0020,0,U,60533,999,10183,.74201E-3,.12681E-3,0
LEMUR-2-MARHISYAM,2024-149BW,2026-06-26T04:46:16.190400,15.11425100,.0003275,97.6882,260.1518,102.0033,258.1564,0,U,60536,999,10184,.67705E-3,.11386E-3,0
LEMUR-2-AHMED-ASRAR,2024-149DN,2026-06-26T03:47:38.849856,15.12904051,.0001063,97.7009,262.2384,24.4176,335.7104,0,U,60576,999,10192,.77465E-3,.13587E-3,0
LEMUR-2-LLOYD,2024-149DP,2026-06-26T04:35:25.848096,15.09400718,.0005087,97.6746,258.3252,117.9672,242.2072,0,U,60577,999,10175,.72131E-3,.11477E-3,0
LEMUR-2-SQUIRRELCOMM,2024-149DQ,2026-06-26T03:38:26.575872,15.07249295,.0005929,97.6719,258.0347,37.5029,322.6611,0,U,60578,999,10175,.46288E-3,.6919E-4,0
LEMUR-2-SIERRINI,2024-149DR,2026-06-26T03:47:27.519360,15.11126580,.0006444,97.6849,259.7901,139.1845,220.9868,0,U,60579,999,10181,.76691E-3,.12806E-3,0
LEMUR-2-WILSON,2025-009CP,2026-06-26T04:42:59.124960,14.95201873,.0003636,97.7026,255.5031,32.6078,327.5367,0,U,62694,999,7870,.17205E-3,.1834E-4,0
LEMUR-2-STAR-FOX,2025-009CR,2026-06-25T16:24:16.903008,15.02608477,.0004348,97.6953,258.2312,94.2616,265.9106,0,U,62696,999,7883,.54462E-3,.7196E-4,0
LEMUR-2-ARIANNA,2025-009CU,2026-06-26T03:33:18.143424,15.02603268,.0004752,97.6896,258.4598,97.6679,262.5086,0,U,62699,999,7890,.64828E-3,.8578E-4,0
LEMUR-2-ALISIA,2025-009DB,2026-06-26T04:34:57.667872,15.02886005,.0002747,97.6934,259.2980,182.3566,177.7646,0,U,62706,999,10151,.70304E-3,.9377E-4,0
